NORAD_CAT_ID,OBJECT_NAME,OBJECT_TYPE,EPOCH,MEAN_MOTION,ECCENTRICITY,INCLINATION,RA_OF_ASC_NODE,ARG_OF_PERICENTER,MEAN_ANOMALY,BSTAR,MEAN_MOTION_DOT,MEAN_MOTION_DDOT,TLE_LINE0,TLE_LINE1,TLE_LINE2,SEMIMAJOR_AXIS,PERIOD,APOGEE,PERIGEE,DECAYED
53430.0,STARLINK-4538,PAYLOAD,2023-04-12 17:33:07,15.08830561,0.0001098,53.2176,191.4736,93.9262,266.1856,-5.3032e-05,-1.131e-05,0.0,0 STARLINK-4538,1 53430U 22097AU  23102.73133595 -.00001131  00000-0 -53032-4 0  9994,2 53430  53.2176 191.4736 0001098  93.9262 266.1856 15.08830561 37989,6917.909,95.438,540.534,539.015,0.0
53430.0,STARLINK-4538,PAYLOAD,2023-04-13 11:02:20,15.08847751,0.0001221,53.2167,188.2033,99.4683,260.6447,0.00017239,2.457e-05,0.0,0 STARLINK-4538,1 53430U 22097AU  23103.45995702  .00002457  00000-0  17239-3 0  9998,2 53430  53.2167 188.2033 0001221  99.4683 260.6447 15.08847751 38557,6917.857,95.437,540.566,538.877,0.0
53430.0,STARLINK-4538,PAYLOAD,2023-04-13 12:37:43,15.08850363,0.0001109,53.2179,187.9088,86.1808,273.9311,0.0002185,3.192e-05,0.0,0 STARLINK-4538,1 53430U 22097AU  23103.52619421  .00003192  00000-0  21850-3 0  9998,2 53430  53.2179 187.9088 0001109  86.1808 273.9311 15.08850363 38104,6917.849,95.437,540.481,538.947,0.0
53430.0,STARLINK-4538,PAYLOAD,2023-04-14 10:53:08,15.08829915,0.0001554,53.2186,183.7446,103.9708,256.1457,1.9724e-05,2.6e-07,0.0,0 STARLINK-4538,1 53430U 22097AU  23104.45357600  .00000026  00000-0  19724-4 0  9990,2 53430  53.2186 183.7446 0001554 103.9708 256.1457 15.08829915 38704,6917.911,95.438,540.851,538.701,0.0
53430.0,STARLINK-4538,PAYLOAD,2023-04-14 22:00:50,15.08838331,0.0001325,53.2172,181.6624,96.2589,263.8554,4.4049e-05,4.13e-06,0.0,0 STARLINK-4538,1 53430U 22097AU  23104.91725035  .00000413  00000-0  44049-4 0  9990,2 53430  53.2172 181.6624 0001325  96.2589 263.8554 15.08838331 38313,6917.885,95.438,540.667,538.834,0.0
53430.0,STARLINK-4538,PAYLOAD,2023-04-15 12:19:17,15.08857006,0.0001357,53.2176,178.9864,94.0049,266.1098,-1.0483e-05,-4.55e-06,0.0,0 STARLINK-4538,1 53430U 22097AU  23105.51339783 -.00000455  00000-0 -10483-4 0  9991,2 53430  53.2176 178.9864 0001357  94.0049 266.1098 15.08857006 38863,6917.828,95.436,540.632,538.755,0.0
53430.0,STARLINK-4538,PAYLOAD,2023-04-15 21:51:36,15.08848014,0.0001108,53.2167,177.2038,100.5353,259.5764,-5.7548e-05,-1.204e-05,0.0,0 STARLINK-4538,1 53430U 22097AU  23105.91084127 -.00001204  00000-0 -57548-4 0  9990,2 53430  53.2167 177.2038 0001108 100.5353 259.5764 15.08848014 38925,6917.856,95.437,540.487,538.954,0.0
53430.0,STARLINK-4538,PAYLOAD,2023-04-16 05:48:33,15.08824376,0.000157,53.2172,175.7152,98.9044,261.2126,2.012e-07,-2.85e-06,0.0,0 STARLINK-4538,1 53430U 22097AU  23106.24205661 -.00000285  00000-0  20120-6 0  9990,2 53430  53.2172 175.7152 0001570  98.9044 261.2126 15.08824376 38513,6917.928,95.439,540.879,538.707,0.0
53430.0,STARLINK-4538,PAYLOAD,2023-04-16 12:10:05,15.08833385,0.0001614,53.2178,174.5255,97.6457,262.4718,2.7521e-05,1.5e-06,0.0,0 STARLINK-4538,1 53430U 22097AU  23106.50701229  .00000150  00000-0  27521-4 0  9990,2 53430  53.2178 174.5255 0001614  97.6457 262.4718 15.08833385 39019,6917.901,95.438,540.882,538.649,0.0
53430.0,STARLINK-4538,PAYLOAD,2023-04-16 21:42:24,15.08837268,0.0001547,53.2171,172.741,92.4307,267.6862,3.9037e-05,3.33e-06,0.0,0 STARLINK-4538,1 53430U 22097AU  23106.90445139  .00000333  00000-0  39037-4 0  9997,2 53430  53.2171 172.7410 0001547  92.4307 267.6862 15.08837268 39074,6917.889,95.438,540.824,538.684,0.0
53430.0,STARLINK-4538,PAYLOAD,2023-04-17 10:25:29,15.08846149,0.000164,53.217,170.3633,84.7065,275.4114,4.1896e-05,3.79e-06,0.0,0 STARLINK-4538,1 53430U 22097AU  23107.43436625  .00000379  00000-0  41896-4 0  9992,2 53430  53.2170 170.3633 0001640  84.7065 275.4114 15.08846149 38695,6917.862,95.437,540.861,538.592,0.0
53430.0,STARLINK-4538,PAYLOAD,2023-04-17 16:47:00,15.08859245,0.0001482,53.2166,169.1714,92.7409,267.3752,6.7465e-05,7.86e-06,0.0,0 STARLINK-4538,1 53430U 22097AU  23107.69931419  .00000786  00000-0  67465-4 0  9993,2 53430  53.2166 169.1714 0001482  92.7409 267.3752 15.08859245 38735,6917.822,95.436,540.712,538.661,0.0
53430.0,STARLINK-4538,PAYLOAD,2023-04-17 21:33:11,15.08833721,1.19e-05,53.2174,168.2854,229.1404,130.9578,-2.1983e-05,-6.37e-06,0.0,0 STARLINK-4538,1 53430U 22097AU  23107.89804633 -.00000637  00000-0 -21983-4 0  9994,2 53430  53.2174 168.2854 0000119 229.1404 130.9578 15.08833721 39223,6917.9,95.438,539.847,539.682,0.0
53430.0,STARLINK-4538,PAYLOAD,2023-04-18 08:40:53,15.08833588,0.0001375,53.2173,166.1998,94.1243,265.9906,0.0001153,1.547e-05,0.0,0 STARLINK-4538,1 53430U 22097AU  23108.36173080  .00001547  00000-0  11530-3 0  9997,2 53430  53.2173 166.1998 0001375  94.1243 265.9906 15.08833588 39296,6917.9,95.438,540.716,538.814,0.0
53430.0,STARLINK-4538,PAYLOAD,2023-04-19 08:31:41,15.08834551,0.0001494,53.2168,161.7393,91.7435,268.3728,-1.5119e-05,-5.29e-06,0.0,0 STARLINK-4538,1 53430U 22097AU  23109.35533701 -.00000529  00000-0 -15119-4 0  9996,2 53430  53.2168 161.7393 0001494  91.7435 268.3728 15.08834551 39445,6917.897,95.438,540.796,538.729,0.0
53430.0,STARLINK-4538,PAYLOAD,2023-04-19 10:07:04,15.08838392,0.0001406,53.2164,161.4402,96.5832,263.532,-4.1437e-05,-9.47e-06,0.0,0 STARLINK-4538,1 53430U 22097AU  23109.42157498 -.00000947  00000-0 -41437-4 0  9995,2 53430  53.2164 161.4402 0001406  96.5832 263.5320 15.08838392 38997,6917.885,95.438,540.723,538.778,0.0
53430.0,STARLINK-4538,PAYLOAD,2023-04-20 03:36:17,15.08851727,0.000121,53.2173,158.1714,71.2889,288.8234,-0.00016143,-2.857e-05,0.0,0 STARLINK-4538,1 53430U 22097AU  23110.15020794 -.00002857  00000-0 -16143-3 0  9992,2 53430  53.2173 158.1714 0001210  71.2889 288.8234 15.08851727 39106,6917.845,95.437,540.547,538.872,0.0
53430.0,STARLINK-4538,PAYLOAD,2023-04-20 13:08:36,15.08843339,0.0001438,53.2167,156.3853,100.6689,259.4465,0.00010031,1.309e-05,0.0,0 STARLINK-4538,1 53430U 22097AU  23110.54764888  .00001309  00000-0  10031-3 0  9993,2 53430  53.2167 156.3853 0001438 100.6689 259.4465 15.08843339 39627,6917.87,95.437,540.73,538.74,0.0
53430.0,STARLINK-4538,PAYLOAD,2023-04-20 19:30:09,15.08855481,0.0001341,53.2167,155.1958,100.6302,259.4841,-0.00014918,-2.662e-05,0.0,0 STARLINK-4538,1 53430U 22097AU  23110.81260575 -.00002662  00000-0 -14918-3 0  9990,2 53430  53.2167 155.1958 0001341 100.6302 259.4841 15.08855481 39668,6917.833,95.437,540.626,538.77,0.0
53430.0,STARLINK-4538,PAYLOAD,2023-04-21 12:59:23,15.08850782,0.0001225,53.2154,151.9244,90.3632,269.7501,0.00021514,3.139e-05,0.0,0 STARLINK-4538,1 53430U 22097AU  23111.54123942  .00003139  00000-0  21514-3 0  9995,2 53430  53.2154 151.9244 0001225  90.3632 269.7501 15.08850782 39316,6917.847,95.437,540.56,538.865,0.0
53430.0,STARLINK-4538,PAYLOAD,2023-04-21 19:20:56,15.08837404,0.0001082,53.2157,150.733,87.5465,272.5651,7.0575e-05,8.36e-06,0.0,0 STARLINK-4538,1 53430U 22097AU  23111.80621176  .00000836  00000-0  70575-4 0  9999,2 53430  53.2157 150.7330 0001082  87.5465 272.5651 15.08837404 39353,6917.888,95.438,540.502,539.005,0.0
53430.0,STARLINK-4538,PAYLOAD,2023-04-22 01:42:30,15.0883227,0.0001248,53.2156,149.5461,86.2727,273.8408,-6.9674e-05,-1.396e-05,0.0,0 STARLINK-4538,1 53430U 22097AU  23112.07118162 -.00001396  00000-0 -69674-4 0  9997,2 53430  53.2156 149.5461 0001248  86.2727 273.8408 15.08832270 39398,6917.904,95.438,540.632,538.906,0.0
53430.0,STARLINK-4538,PAYLOAD,2023-04-22 19:11:44,15.08832192,0.0001259,53.2174,146.2756,88.1178,271.9958,-5.6513e-05,-1.187e-05,0.0,0 STARLINK-4538,1 53430U 22097AU  23112.79982439 -.00001187  00000-0 -56513-4 0  9998,2 53430  53.2174 146.2756 0001259  88.1178 271.9958 15.08832192 39967,6917.904,95.438,540.64,538.898,0.0
53430.0,STARLINK-4538,PAYLOAD,2023-04-23 11:05:35,15.0884605,0.0001176,53.2176,143.3025,100.8551,259.2573,-6.0411e-06,-3.84e-06,0.0,0 STARLINK-4538,1 53430U 22097AU  23113.46221526 -.00000384  00000-0 -60411-5 0  9997,2 53430  53.2176 143.3025 0001176 100.8551 259.2573 15.08846050 39602,6917.862,95.437,540.54,538.913,0.0
53430.0,STARLINK-4538,PAYLOAD,2023-04-23 14:16:21,15.08848165,0.000115,53.2171,142.7074,99.5674,260.5448,1.8366e-05,5e-08,0.0,0 STARLINK-4538,1 53430U 22097AU  23113.59469317  .00000005  00000-0  18366-4 0  9992,2 53430  53.2171 142.7074 0001150  99.5674 260.5448 15.08848165 40085,6917.855,95.437,540.516,538.925,0.0
53430.0,STARLINK-4538,PAYLOAD,2023-04-24 10:56:21,15.08856956,9.83e-05,53.2165,138.8403,98.7885,261.3218,0.00035602,5.385e-05,0.0,0 STARLINK-4538,1 53430U 22097AU  23114.45580098  .00005385  00000-0  35602-3 0  9995,2 53430  53.2165 138.8403 0000983  98.7885 261.3218 15.08856956 39751,6917.829,95.436,540.374,539.014,0.0
53430.0,STARLINK-4538,PAYLOAD,2023-04-25 10:47:09,15.0883747,0.0001063,53.215,134.38,107.4291,252.6817,-8.2015e-05,-1.593e-05,0.0,0 STARLINK-4538,1 53430U 22097AU  23115.44941514 -.00001593  00000-0 -82015-4 0  9999,2 53430  53.2150 134.3800 0001063 107.4291 252.6817 15.08837470 40363,6917.888,95.438,540.488,539.018,0.0
53430.0,STARLINK-4538,PAYLOAD,2023-04-26 12:13:20,15.08837015,0.0001133,53.2159,129.6215,111.3048,248.8065,0.00010275,1.348e-05,0.0,0 STARLINK-4538,1 53430U 22097AU  23116.50926023  .00001348  00000-0  10275-3 0  9999,2 53430  53.2159 129.6215 0001133 111.3048 248.8065 15.08837015 40526,6917.89,95.438,540.538,538.971,0.0
53430.0,STARLINK-4538,PAYLOAD,2023-04-27 12:04:07,15.0884942,0.0001145,53.216,125.1614,116.0976,244.0134,0.00041358,6.302e-05,0.0,0 STARLINK-4538,1 53430U 22097AU  23117.50285895  .00006302  00000-0  41358-3 0  9996,2 53430  53.2160 125.1614 0001145 116.0976 244.0134 15.08849420 40671,6917.852,95.437,540.509,538.925,0.0
53430.0,STARLINK-4538,PAYLOAD,2023-04-28 05:33:21,15.08840885,0.0001239,53.2167,121.8899,113.3284,246.7839,0.00010366,1.362e-05,0.0,0 STARLINK-4538,1 53430U 22097AU  23118.23150107  .00001362  00000-0  10366-3 0  9990,2 53430  53.2167 121.8899 0001239 113.3284 246.7839 15.08840885 40321,6917.878,95.437,540.6,538.886,0.0
